IRIDIUM 159             
1 43578U 18061K   24022.49502694  .00000087  00000+0  23852-4 0  9990
2 43578  86.3934  63.0975 0002367  96.9932 263.1533 14.34215765287725
IRIDIUM 180             
1 43922U 19002A   24021.93635565  .00000523  00000+0  17985-3 0  9995
2 43922  86.3985   0.2096 0002389  88.4655 271.6814 14.34215199263252
IRIDIUM 176             
1 43923U 19002B   24022.44352907  .00002063  00000+0  32344-3 0  9996
2 43923  86.6115   0.0270 0002193  87.2024 272.9444 14.72226664270255
IRIDIUM 168             
1 43924U 19002C   24021.99979584  .00000462  00000+0  15806-3 0  9997
2 43924  86.3985   0.2349 0002173  87.4065 272.7380 14.34215467263247
IRIDIUM 173             
1 43925U 19002D   24022.47549618  .00000153  00000+0  47576-4 0  9990
2 43925  86.3983 359.9619 0002286  85.4012 274.7445 14.34217133263308
IRIDIUM 169             
1 43926U 19002E   24022.08437816  .00000294  00000+0  89460-4 0  9998
2 43926  86.4210  31.7278 0003322  36.4321 323.7102 14.38613017264121
IRIDIUM 172             
1 43927U 19002F   24021.91100359  .00000317  00000+0  10602-3 0  9996
2 43927  86.3982   0.2031 0002203  91.8417 268.3031 14.34217313263223
IRIDIUM 175             
1 43928U 19002G   24021.96182572  .00001938  00000+0  30353-3 0  9994
2 43928  86.1531 341.7031 0002440  86.4497 273.6999 14.72218359270173
